[{"OBJECT_NAME":"STARLINK-1457","OBJECT_ID":"2020-035T","EPOCH":"2026-03-10T00:00:02.999808","MEAN_MOTION":15.78669146,"ECCENTRICITY":0.00092447,"INCLINATION":53.048,"RA_OF_ASC_NODE":20.8784,"ARG_OF_PERICENTER":72.1438,"MEAN_ANOMALY":18.6861,"EPHEMERIS_TYPE":0,"CLASSIFICATION_TYPE":"U","NORAD_CAT_ID":45674,"ELEMENT_SET_NO":999,"REV_AT_EPOCH":598,"BSTAR":0.00068365189,"MEAN_MOTION_DOT":0.00123445,"MEAN_MOTION_DDOT":0},{"OBJECT_NAME":"STARLINK-36612","OBJECT_ID":"2026-016V","EPOCH":"2026-03-09T19:03:31.453056","MEAN_MOTION":15.7522704,"ECCENTRICITY":0.00011216,"INCLINATION":97.2837,"RA_OF_ASC_NODE":129.3465,"ARG_OF_PERICENTER":97.1011,"MEAN_ANOMALY":263.0381,"EPHEMERIS_TYPE":0,"CLASSIFICATION_TYPE":"U","NORAD_CAT_ID":67580,"ELEMENT_SET_NO":999,"REV_AT_EPOCH":682,"BSTAR":0.0022788807,"MEAN_MOTION_DOT":0.0035487,"MEAN_MOTION_DDOT":0}]
